FIREFLY-1               
1 62701U 25009CW  26201.27461129  .00000459  00000+0  49777-4 0  9990
2 62701  97.7058 278.7173 0003010 201.4092 158.7002 14.92746813 82256
FIREFLY-2               
1 62704U 25009CZ  26201.25253006  .00000385  00000+0  42695-4 0  9994
2 62704  97.7014 278.4626 0005953 345.5902  14.5147 14.92741663 82256
FIREFLY-3               
1 62710U 25009DF  26201.23043312  .00000785  00000+0  81215-4 0  9991
2 62710  97.7048 278.7036 0004526  61.7112 298.4564 14.92806514 82267
