{"fetched_at":"2026-07-20T18:29:19.920Z","source":"https://celestrak.org/NORAD/elements/gp.php?NAME=FIREFLY&FORMAT=JSON","constellation":"pixxel","records":[{"OBJECT_NAME":"FIREFLY-1","OBJECT_ID":"2025-009CW","EPOCH":"2026-07-20T06:35:26.415456","CLASSIFICATION_TYPE":"U","MEAN_MOTION":14.92746813,"ECCENTRICITY":0.00030103,"INCLINATION":97.7058,"RA_OF_ASC_NODE":278.7173,"ARG_OF_PERICENTER":201.4092,"MEAN_ANOMALY":158.7002,"EPHEMERIS_TYPE":0,"NORAD_CAT_ID":62701,"ELEMENT_SET_NO":999,"REV_AT_EPOCH":8225,"BSTAR":0.000049777328,"MEAN_MOTION_DOT":0.00000459,"MEAN_MOTION_DDOT":0},{"OBJECT_NAME":"FIREFLY-2","OBJECT_ID":"2025-009CZ","EPOCH":"2026-07-20T06:03:38.597184","CLASSIFICATION_TYPE":"U","MEAN_MOTION":14.92741663,"ECCENTRICITY":0.00059534,"INCLINATION":97.7014,"RA_OF_ASC_NODE":278.4626,"ARG_OF_PERICENTER":345.5902,"MEAN_ANOMALY":14.5147,"EPHEMERIS_TYPE":0,"NORAD_CAT_ID":62704,"ELEMENT_SET_NO":999,"REV_AT_EPOCH":8225,"BSTAR":0.000042695257,"MEAN_MOTION_DOT":0.00000385,"MEAN_MOTION_DDOT":0},{"OBJECT_NAME":"FIREFLY-3","OBJECT_ID":"2025-009DF","EPOCH":"2026-07-20T05:31:49.421568","CLASSIFICATION_TYPE":"U","MEAN_MOTION":14.92806514,"ECCENTRICITY":0.00045262,"INCLINATION":97.7048,"RA_OF_ASC_NODE":278.7036,"ARG_OF_PERICENTER":61.7112,"MEAN_ANOMALY":298.4564,"EPHEMERIS_TYPE":0,"NORAD_CAT_ID":62710,"ELEMENT_SET_NO":999,"REV_AT_EPOCH":8226,"BSTAR":0.000081215493,"MEAN_MOTION_DOT":0.00000785,"MEAN_MOTION_DDOT":0}]}
